{

    "type": "FeatureCollection",
  
    "features": [
  
      {
  
        "type": "Feature",
  
        "properties": {},
  
        "geometry": {
  
          "coordinates": [
  
            [
  
              [
  
                -8.894572059028917,
  
                39.93563958060966
  
              ],
  
              [
  
                -8.894572059028917,
  
                39.92968510780872
  
              ],
  
              [
  
                -8.885187938596914,
  
                39.92968510780872
  
              ],
  
              [
  
                -8.885187938596914,
  
                39.93563958060966
  
              ],
  
              [
  
                -8.894572059028917,
  
                39.93563958060966
  
              ]
  
            ]
  
          ],
  
          "type": "Polygon"
  
        }
  
      }
  
    ]
  
  }